NORAD_CAT_ID,OBJECT_NAME,OBJECT_TYPE,EPOCH,MEAN_MOTION,ECCENTRICITY,INCLINATION,RA_OF_ASC_NODE,ARG_OF_PERICENTER,MEAN_ANOMALY,BSTAR,MEAN_MOTION_DOT,MEAN_MOTION_DDOT,TLE_LINE0,TLE_LINE1,TLE_LINE2,SEMIMAJOR_AXIS,PERIOD,APOGEE,PERIGEE,DECAYED
52362.0,STARLINK-3848,PAYLOAD,2024-08-04 14:26:12,15.08855376,0.0001502,53.2168,282.2189,94.6374,265.4789,0.00039899,6.07e-05,0.0,0 STARLINK-3848,1 52362U 22045AH  24217.60153095  .00006070  00000-0  39899-3 0  9990,2 52362  53.2168 282.2189 0001502  94.6374 265.4789 15.08855376128042,6917.833,95.437,540.737,538.659,0.0
52362.0,STARLINK-3848,PAYLOAD,2024-08-06 12:32:24,15.08835555,0.0001754,53.2161,273.5963,89.4541,270.6652,0.00011892,1.605e-05,0.0,0 STARLINK-3848,1 52362U 22045AH  24219.52250870  .00001605  00000-0  11892-3 0  9994,2 52362  53.2161 273.5963 0001754  89.4541 270.6652 15.08835555128331,6917.894,95.438,540.972,538.546,0.0
52362.0,STARLINK-3848,PAYLOAD,2024-08-07 12:23:11,15.0886006,0.000181,53.2153,269.1356,89.5516,270.5683,0.0006204,9.605e-05,0.0,0 STARLINK-3848,1 52362U 22045AH  24220.51610210  .00009605  00000-0  62040-3 0  9992,2 52362  53.2153 269.1356 0001810  89.5516 270.5683 15.08860060128483,6917.819,95.436,540.936,538.432,0.0
52362.0,STARLINK-3848,PAYLOAD,2024-08-08 10:38:34,15.08856573,0.0001757,53.2146,264.9713,94.986,265.1332,0.00032652,4.915e-05,0.0,0 STARLINK-3848,1 52362U 22045AH  24221.44345767  .00004915  00000-0  32652-3 0  9992,2 52362  53.2146 264.9713 0001757  94.9860 265.1332 15.08856573128628,6917.83,95.437,540.91,538.479,0.0
52362.0,STARLINK-3848,PAYLOAD,2024-08-09 12:04:44,15.08848126,0.0001686,53.2154,260.2115,90.1828,269.9358,0.0001155,1.551e-05,0.0,0 STARLINK-3848,1 52362U 22045AH  24222.50329799  .00001551  00000-0  11550-3 0  9994,2 52362  53.2154 260.2115 0001686  90.1828 269.9358 15.08848126128787,6917.856,95.437,540.887,538.554,0.0
52362.0,STARLINK-3848,PAYLOAD,2024-08-09 20:01:40,15.08843756,0.0001681,53.2155,258.7229,93.0556,267.0628,0.00010918,1.45e-05,0.0,0 STARLINK-3848,1 52362U 22045AH  24222.83450004  .00001450  00000-0  10918-3 0  9999,2 52362  53.2155 258.7229 0001681  93.0556 267.0628 15.08843756128830,6917.869,95.437,540.897,538.571,0.0
52362.0,STARLINK-3848,PAYLOAD,2024-08-10 11:55:32,15.08847588,0.000174,53.2153,255.7488,100.0724,260.0464,0.00023267,3.418e-05,0.0,0 STARLINK-3848,1 52362U 22045AH  24223.49689904  .00003418  00000-0  23267-3 0  9992,2 52362  53.2153 255.7488 0001740 100.0724 260.0464 15.08847588128933,6917.857,95.437,540.926,538.518,0.0
52362.0,STARLINK-3848,PAYLOAD,2024-08-11 02:14:00,15.08840705,0.0001808,53.2148,253.0704,102.3861,257.7333,0.00017264,2.461e-05,0.0,0 STARLINK-3848,1 52362U 22045AH  24224.09306230  .00002461  00000-0  17264-3 0  9994,2 52362  53.2148 253.0704 0001808 102.3861 257.7333 15.08840705129024,6917.878,95.438,540.994,538.492,0.0
52362.0,STARLINK-3848,PAYLOAD,2024-08-11 08:35:32,15.08848333,0.0001601,53.2153,251.8849,93.2948,266.8227,0.00024549,3.622e-05,0.0,0 STARLINK-3848,1 52362U 22045AH  24224.35801946  .00003622  00000-0  24549-3 0  9991,2 52362  53.2153 251.8849 0001601  93.2948 266.8227 15.08848333129063,6917.855,95.437,540.827,538.612,0.0
52362.0,STARLINK-3848,PAYLOAD,2024-08-12 05:15:33,15.08842226,0.0001464,53.2141,248.0192,97.3502,262.7656,0.00010661,1.409e-05,0.0,0 STARLINK-3848,1 52362U 22045AH  24225.21914069  .00001409  00000-0  10661-3 0  9999,2 52362  53.2141 248.0192 0001464  97.3502 262.7656 15.08842226129197,6917.874,95.437,540.751,538.726,0.0
52362.0,STARLINK-3848,PAYLOAD,2024-08-12 08:26:19,15.08847133,0.0001512,53.2147,247.4242,97.9793,262.1371,0.0001723,2.456e-05,0.0,0 STARLINK-3848,1 52362U 22045AH  24225.35161851  .00002456  00000-0  17230-3 0  9999,2 52362  53.2147 247.4242 0001512  97.9793 262.1371 15.08847133129217,6917.859,95.437,540.77,538.678,0.0
52362.0,STARLINK-3848,PAYLOAD,2024-08-12 17:58:38,15.08853129,0.000144,53.2149,245.6401,99.3355,260.78,0.00028194,4.204e-05,0.0,0 STARLINK-3848,1 52362U 22045AH  24225.74905513  .00004204  00000-0  28194-3 0  9997,2 52362  53.2149 245.6401 0001440  99.3355 260.7800 15.08853129129275,6917.84,95.437,540.701,538.709,0.0
52362.0,STARLINK-3848,PAYLOAD,2024-08-13 11:27:53,15.08844038,0.0001466,53.2152,242.3708,93.1656,266.9504,5.5686e-05,5.98e-06,0.0,0 STARLINK-3848,1 52362U 22045AH  24226.47769679  .00000598  00000-0  55686-4 0  9998,2 52362  53.2152 242.3708 0001466  93.1656 266.9504 15.08844038129387,6917.868,95.437,540.747,538.719,0.0
52362.0,STARLINK-3848,PAYLOAD,2024-08-13 17:49:26,15.08832932,0.0001333,53.2134,241.1782,84.6458,275.4686,-4.2601e-05,-9.66e-06,0.0,0 STARLINK-3848,1 52362U 22045AH  24226.74266334 -.00000966  00000-0 -42601-4 0  9992,2 52362  53.2134 241.1782 0001333  84.6458 275.4686 15.08832932129425,6917.902,95.438,540.689,538.845,0.0
52362.0,STARLINK-3848,PAYLOAD,2024-08-14 04:57:08,15.0882256,0.000154,53.2154,239.0967,101.3346,258.7819,-0.00018213,-3.184e-05,0.0,0 STARLINK-3848,1 52362U 22045AH  24227.20635120 -.00003184  00000-0 -18213-3 0  9993,2 52362  53.2154 239.0967 0001540 101.3346 258.7819 15.08822560129496,6917.934,95.439,540.864,538.733,0.0
52362.0,STARLINK-3848,PAYLOAD,2024-08-14 11:18:41,15.08828345,0.0001373,53.2164,237.9103,101.8777,258.2369,-5.9794e-05,-1.239e-05,0.0,0 STARLINK-3848,1 52362U 22045AH  24227.47131636 -.00001239  00000-0 -59794-4 0  9994,2 52362  53.2164 237.9103 0001373 101.8777 258.2369 15.08828345129530,6917.916,95.438,540.731,538.831,0.0
52362.0,STARLINK-3848,PAYLOAD,2024-08-14 17:40:14,15.08831955,0.0001526,53.2173,236.7219,102.6235,257.4928,-3.1142e-05,-7.83e-06,0.0,0 STARLINK-3848,1 52362U 22045AH  24227.73627503 -.00000783  00000-0 -31142-4 0  9996,2 52362  53.2173 236.7219 0001526 102.6235 257.4928 15.08831955129570,6917.905,95.438,540.826,538.714,0.0
52362.0,STARLINK-3848,PAYLOAD,2024-08-15 04:47:55,15.0883443,0.0001409,53.2163,234.6399,98.9691,261.146,0.00010393,1.366e-05,0.0,0 STARLINK-3848,1 52362U 22045AH  24228.19995262  .00001366  00000-0  10393-3 0  9997,2 52362  53.2163 234.6399 0001409  98.9691 261.1460 15.08834430129640,6917.897,95.438,540.737,538.788,0.0
52362.0,STARLINK-3848,PAYLOAD,2024-08-15 07:58:42,15.08837743,0.0001371,53.216,234.0449,98.3216,261.7932,0.00010295,1.351e-05,0.0,0 STARLINK-3848,1 52362U 22045AH  24228.33243164  .00001351  00000-0  10295-3 0  9995,2 52362  53.2160 234.0449 0001371  98.3216 261.7932 15.08837743129664,6917.887,95.438,540.701,538.804,0.0
52362.0,STARLINK-3848,PAYLOAD,2024-08-16 07:49:29,15.08843332,0.0001296,53.2147,229.5838,95.4508,264.6632,0.00026209,3.886e-05,0.0,0 STARLINK-3848,1 52362U 22045AH  24229.32603299  .00003886  00000-0  26209-3 0  9991,2 52362  53.2147 229.5838 0001296  95.4508 264.6632 15.08843332129815,6917.87,95.437,540.632,538.839,0.0
52362.0,STARLINK-3848,PAYLOAD,2024-08-17 04:29:29,15.08846655,0.0001325,53.2144,225.7181,95.2758,264.8386,0.00015776,2.224e-05,0.0,0 STARLINK-3848,1 52362U 22045AH  24230.18715041  .00002224  00000-0  15776-3 0  9998,2 52362  53.2144 225.7181 0001325  95.2758 264.8386 15.08846655129942,6917.86,95.437,540.642,538.808,0.0
52362.0,STARLINK-3848,PAYLOAD,2024-08-18 04:20:17,15.08823265,0.0001637,53.2147,221.2504,110.2725,249.8443,0.00050901,7.819e-05,0.0,0 STARLINK-3848,1 52362U 22045AH  24231.18075872  .00007819  00000-0  50901-3 0  9994,2 52362  53.2147 221.2504 0001637 110.2725 249.8443 15.08823265130090,6917.932,95.439,540.929,538.664,0.0
52362.0,STARLINK-3848,PAYLOAD,2024-08-18 05:55:40,15.0884127,0.0001487,53.216,220.9533,99.5957,260.5203,2.9992e-05,1.89e-06,0.0,0 STARLINK-3848,1 52362U 22045AH  24231.24699233  .00000189  00000-0  29992-4 0  9994,2 52362  53.2160 220.9533 0001487  99.5957 260.5203 15.08841270130104,6917.877,95.437,540.77,538.713,0.0
52362.0,STARLINK-3848,PAYLOAD,2024-08-18 09:06:26,15.08838165,0.0001495,53.216,220.3605,96.3604,263.7558,3.3843e-05,2.51e-06,0.0,0 STARLINK-3848,1 52362U 22045AH  24231.37947415  .00000251  00000-0  33843-4 0  9996,2 52362  53.2160 220.3605 0001495  96.3604 263.7558 15.08838165130120,6917.886,95.438,540.785,538.717,0.0
52362.0,STARLINK-3848,PAYLOAD,2024-08-19 05:46:27,15.08837991,0.0001595,53.2167,216.495,106.7253,253.3914,3.0658e-06,-2.39e-06,0.0,0 STARLINK-3848,1 52362U 22045AH  24232.24059321 -.00000239  00000-0  30658-5 0  9992,2 52362  53.2167 216.4950 0001595 106.7253 253.3914 15.08837991130254,6917.887,95.438,540.855,538.648,0.0
52362.0,STARLINK-3848,PAYLOAD,2024-08-20 05:37:14,15.08841776,0.0001428,53.2156,212.0383,91.5631,268.5524,8.42e-05,1.052e-05,0.0,0 STARLINK-3848,1 52362U 22045AH  24233.23419101  .00001052  00000-0  84200-4 0  9992,2 52362  53.2156 212.0383 0001428  91.5631 268.5524 15.08841776130408,6917.875,95.437,540.728,538.752,0.0
52362.0,STARLINK-3848,PAYLOAD,2024-08-21 03:52:38,15.08835576,0.0001418,53.2153,207.8754,91.4995,268.616,5.4207e-05,5.75e-06,0.0,0 STARLINK-3848,1 52362U 22045AH  24234.16155795  .00000575  00000-0  54207-4 0  9994,2 52362  53.2153 207.8754 0001418  91.4995 268.6160 15.08835576130543,6917.894,95.438,540.74,538.778,0.0
